NORAD_CAT_ID,OBJECT_NAME,OBJECT_TYPE,EPOCH,MEAN_MOTION,ECCENTRICITY,INCLINATION,RA_OF_ASC_NODE,ARG_OF_PERICENTER,MEAN_ANOMALY,BSTAR,MEAN_MOTION_DOT,MEAN_MOTION_DDOT,TLE_LINE0,TLE_LINE1,TLE_LINE2,SEMIMAJOR_AXIS,PERIOD,APOGEE,PERIGEE,DECAYED
51146.0,STARLINK-3354,PAYLOAD,2024-02-18 17:50:56,15.08845261,0.0001729,53.2156,65.7696,95.069,265.05,0.00014046,1.948e-05,0.0,0 STARLINK-3354,1 51146U 22005AU  24049.74371371  .00001948  00000-0  14046-3 0  9998,2 51146  53.2156  65.7696 0001729  95.0690 265.0500 15.08845261116633,6917.864,95.437,540.925,538.533,0.0
51146.0,STARLINK-3354,PAYLOAD,2024-02-19 01:47:52,15.08836219,0.0001821,53.2169,64.284,95.1537,264.9663,-4.7842e-06,-3.64e-06,0.0,0 STARLINK-3354,1 51146U 22005AU  24050.07491874 -.00000364  00000-0 -47842-5 0  9992,2 51146  53.2169  64.2840 0001821  95.1537 264.9663 15.08836219116682,6917.892,95.438,541.017,538.497,0.0
51146.0,STARLINK-3354,PAYLOAD,2024-02-19 08:09:25,15.08837926,0.000196,53.2186,63.0966,106.7766,253.3442,5.2172e-05,5.42e-06,0.0,0 STARLINK-3354,1 51146U 22005AU  24050.33988135  .00000542  00000-0  52172-4 0  9999,2 51146  53.2186  63.0966 0001960 106.7766 253.3442 15.08837926115608,6917.887,95.438,541.108,538.396,0.0
51146.0,STARLINK-3354,PAYLOAD,2024-02-19 17:41:44,15.08838984,0.0001885,53.2194,61.3097,88.1302,271.9906,7.0222e-05,8.3e-06,0.0,0 STARLINK-3354,1 51146U 22005AU  24050.73732088  .00000830  00000-0  70222-4 0  9993,2 51146  53.2194  61.3097 0001885  88.1302 271.9906 15.08838984115660,6917.883,95.438,541.053,538.444,0.0
51146.0,STARLINK-3354,PAYLOAD,2024-02-20 08:00:13,15.08837798,0.0001846,53.2182,58.634,92.304,267.8163,-2.1069e-05,-6.23e-06,0.0,0 STARLINK-3354,1 51146U 22005AU  24051.33348463 -.00000623  00000-0 -21069-4 0  9997,2 51146  53.2182  58.6340 0001846  92.3040 267.8163 15.08837798116875,6917.887,95.438,541.029,538.475,0.0
51146.0,STARLINK-3354,PAYLOAD,2024-02-20 17:32:31,15.08840692,0.0001805,53.2176,56.8506,93.1879,266.932,3.8134e-05,3.19e-06,0.0,0 STARLINK-3354,1 51146U 22005AU  24051.73092137  .00000319  00000-0  38134-4 0  9996,2 51146  53.2176  56.8506 0001805  93.1879 266.9320 15.08840692115811,6917.878,95.438,540.992,538.495,0.0
51146.0,STARLINK-3354,PAYLOAD,2024-02-21 07:50:59,15.08846341,0.0001707,53.2175,54.1745,86.8008,273.318,0.00010637,1.406e-05,0.0,0 STARLINK-3354,1 51146U 22005AU  24052.32707601  .00001406  00000-0  10637-3 0  9996,2 51146  53.2175  54.1745 0001707  86.8008 273.3180 15.08846341117028,6917.861,95.437,540.907,538.545,0.0
51146.0,STARLINK-3354,PAYLOAD,2024-02-21 17:23:18,15.08841043,0.0001623,53.2174,52.3862,91.2435,268.8743,5.8369e-05,6.41e-06,0.0,0 STARLINK-3354,1 51146U 22005AU  24052.72451882  .00000641  00000-0  58369-4 0  9992,2 51146  53.2174  52.3862 0001623  91.2435 268.8743 15.08841043117082,6917.877,95.437,540.865,538.619,0.0
51146.0,STARLINK-3354,PAYLOAD,2024-02-22 04:31:00,15.08827586,0.0001334,53.2176,50.3043,98.2163,261.898,0.0001756,2.507e-05,0.0,0 STARLINK-3354,1 51146U 22005AU  24053.18820427  .00002507  00000-0  17560-3 0  9998,2 51146  53.2176  50.3043 0001334  98.2163 261.8980 15.08827586117157,6917.918,95.438,540.706,538.86,0.0
51146.0,STARLINK-3354,PAYLOAD,2024-02-22 09:17:09,15.08841181,0.000161,53.2181,49.4126,97.6149,262.5026,4.3899e-05,4.11e-06,0.0,0 STARLINK-3354,1 51146U 22005AU  24053.38692010  .00000411  00000-0  43899-4 0  9992,2 51146  53.2181  49.4126 0001610  97.6149 262.5026 15.08841181117187,6917.877,95.437,540.856,538.628,0.0
51146.0,STARLINK-3354,PAYLOAD,2024-02-22 17:14:05,15.0883624,0.0001608,53.2183,47.9237,101.9868,258.1305,2.366e-05,8.9e-07,0.0,0 STARLINK-3354,1 51146U 22005AU  24053.71812371  .00000089  00000-0  23660-4 0  9998,2 51146  53.2183  47.9237 0001608 101.9868 258.1305 15.08836240116112,6917.892,95.438,540.869,538.644,0.0
51146.0,STARLINK-3354,PAYLOAD,2024-02-23 05:57:10,15.08841101,0.0001404,53.2172,45.5462,95.8586,264.2566,4.0259e-05,3.53e-06,0.0,0 STARLINK-3354,1 51146U 22005AU  24054.24803974  .00000353  00000-0  40259-4 0  9993,2 51146  53.2172  45.5462 0001404  95.8586 264.2566 15.08841101116193,6917.877,95.437,540.713,538.771,0.0
51146.0,STARLINK-3354,PAYLOAD,2024-02-24 04:12:34,15.08835648,0.0001516,53.2183,41.3819,99.6006,260.5157,5.2861e-05,5.53e-06,0.0,0 STARLINK-3354,1 51146U 22005AU  24055.17540321  .00000553  00000-0  52861-4 0  9994,2 51146  53.2183  41.3819 0001516  99.6006 260.5157 15.08835648117452,6917.894,95.438,540.807,538.71,0.0
51146.0,STARLINK-3354,PAYLOAD,2024-02-24 08:58:44,15.08845959,0.000157,53.2182,40.4906,95.6437,264.4734,-3.6494e-05,-8.69e-06,0.0,0 STARLINK-3354,1 51146U 22005AU  24055.37412063 -.00000869  00000-0 -36494-4 0  9993,2 51146  53.2182  40.4906 0001570  95.6437 264.4734 15.08845959116361,6917.862,95.437,540.813,538.641,0.0
51146.0,STARLINK-3354,PAYLOAD,2024-02-25 05:38:45,15.0883713,0.0001429,53.2189,36.6296,90.827,269.2886,6.9485e-05,8.18e-06,0.0,0 STARLINK-3354,1 51146U 22005AU  24056.23524488  .00000818  00000-0  69485-4 0  9992,2 51146  53.2189  36.6296 0001429  90.8270 269.2886 15.08837130117614,6917.889,95.438,540.743,538.766,0.0
51146.0,STARLINK-3354,PAYLOAD,2024-02-25 15:11:03,15.0884525,0.0001552,53.2191,34.8456,97.4232,262.6937,8.418e-06,-1.54e-06,0.0,0 STARLINK-3354,1 51146U 22005AU  24056.63268119 -.00000154  00000-0  84180-5 0  9996,2 51146  53.2191  34.8456 0001552  97.4232 262.6937 15.08845250116551,6917.864,95.437,540.803,538.656,0.0
51146.0,STARLINK-3354,PAYLOAD,2024-02-26 07:04:54,15.08846969,0.0001602,53.2197,31.8725,103.4301,256.6869,0.00010118,1.323e-05,0.0,0 STARLINK-3354,1 51146U 22005AU  24057.29507813  .00001323  00000-0  10118-3 0  9992,2 51146  53.2197  31.8725 0001602 103.4301 256.6869 15.08846969117774,6917.859,95.437,540.832,538.616,0.0
51146.0,STARLINK-3354,PAYLOAD,2024-02-27 03:44:56,15.08834737,0.000168,53.2194,28.0073,84.4137,275.7046,-8.5812e-07,-3.02e-06,0.0,0 STARLINK-3354,1 51146U 22005AU  24058.15621283 -.00000302  00000-0 -85812-6 0  9990,2 51146  53.2194  28.0073 0001680  84.4137 275.7046 15.08834737117900,6917.896,95.438,540.924,538.599,0.0
51146.0,STARLINK-3354,PAYLOAD,2024-02-27 08:31:05,15.08837219,0.0001584,53.2192,27.1152,93.5652,266.5521,1.805e-05,-1e-08,0.0,0 STARLINK-3354,1 51146U 22005AU  24058.35493046 -.00000001  00000-0  18050-4 0  9999,2 51146  53.2192  27.1152 0001584  93.5652 266.5521 15.08837219116815,6917.889,95.438,540.85,538.658,0.0
51146.0,STARLINK-3354,PAYLOAD,2024-02-27 21:14:11,15.08836046,0.000153,53.2186,24.7328,87.2792,272.8376,3.3415e-05,2.44e-06,0.0,0 STARLINK-3354,1 51146U 22005AU  24058.88485141  .00000244  00000-0  33415-4 0  9994,2 51146  53.2186  24.7328 0001530  87.2792 272.8376 15.08836046116895,6917.892,95.438,540.816,538.699,0.0
51146.0,STARLINK-3354,PAYLOAD,2024-02-28 03:35:42,15.088487,0.0001548,53.2189,23.5468,96.1626,263.9543,5.263e-05,5.5e-06,0.0,0 STARLINK-3354,1 51146U 22005AU  24059.14980289  .00000550  00000-0  52630-4 0  9997,2 51146  53.2189  23.5468 0001548  96.1626 263.9543 15.08848700118051,6917.854,95.437,540.79,538.648,0.0
51146.0,STARLINK-3354,PAYLOAD,2024-02-28 14:43:25,15.08845567,0.0001687,53.2188,21.4657,73.1997,286.918,4.2266e-06,-2.21e-06,0.0,0 STARLINK-3354,1 51146U 22005AU  24059.61348546 -.00000221  00000-0  42266-5 0  9994,2 51146  53.2188  21.4657 0001687  73.1997 286.9180 15.08845567117001,6917.863,95.437,540.895,538.561,0.0
51146.0,STARLINK-3354,PAYLOAD,2024-02-29 03:26:31,15.08834254,0.0001703,53.2188,19.0861,76.9264,283.1918,3.7342e-05,3.06e-06,0.0,0 STARLINK-3354,1 51146U 22005AU  24060.14341462  .00000306  00000-0  37342-4 0  9995,2 51146  53.2188  19.0861 0001703  76.9264 283.1918 15.08834254118200,6917.898,95.438,540.941,538.585,0.0
51146.0,STARLINK-3354,PAYLOAD,2024-02-29 14:34:12,15.08839338,0.0001572,53.2196,16.9993,84.7854,275.3317,5.9721e-05,6.63e-06,0.0,0 STARLINK-3354,1 51146U 22005AU  24060.60708971  .00000663  00000-0  59721-4 0  9999,2 51146  53.2196  16.9993 0001572  84.7854 275.3317 15.08839338117154,6917.882,95.438,540.835,538.66,0.0
51146.0,STARLINK-3354,PAYLOAD,2024-02-29 20:55:45,15.0883518,0.000134,53.2166,15.8121,89.3204,270.7941,3.8228e-05,3.2e-06,0.0,0 STARLINK-3354,1 51146U 22005AU  24060.87205255  .00000320  00000-0  38228-4 0  9994,2 51146  53.2166  15.8121 0001340  89.3204 270.7941 15.08835180117192,6917.895,95.438,540.687,538.833,0.0
51146.0,STARLINK-3354,PAYLOAD,2024-03-01 06:28:02,15.08854182,0.000135,53.2181,14.027,116.1237,243.9894,3.7926e-05,3.16e-06,0.0,0 STARLINK-3354,1 51146U 22005AU  24061.26947910  .00000316  00000-0  37926-4 0  9998,2 51146  53.2181  14.0270 0001350 116.1237 243.9894 15.08854182118374,6917.837,95.437,540.636,538.768,0.0
51146.0,STARLINK-3354,PAYLOAD,2024-03-01 14:24:58,15.08848603,0.0001244,53.2172,12.54,106.2825,253.8304,3.95e-06,-2.25e-06,0.0,0 STARLINK-3354,1 51146U 22005AU  24061.60068219 -.00000225  00000-0  39500-5 0  9993,2 51146  53.2172  12.5400 0001244 106.2825 253.8304 15.08848603118420,6917.854,95.437,540.58,538.859,0.0
51146.0,STARLINK-3354,PAYLOAD,2024-03-02 03:08:03,15.08847556,0.0001485,53.2189,10.1606,92.6971,267.4191,8.6661e-05,1.092e-05,0.0,0 STARLINK-3354,1 51146U 22005AU  24062.13060108  .00001092  00000-0  86661-4 0  9992,2 51146  53.2189  10.1606 0001485  92.6971 267.4191 15.08847556117382,6917.857,95.437,540.75,538.695,0.0
51146.0,STARLINK-3354,PAYLOAD,2024-03-03 02:58:51,15.08834171,0.000122,53.219,5.7026,85.0274,275.0857,0.00010354,1.36e-05,0.0,0 STARLINK-3354,1 51146U 22005AU  24063.12420939  .00001360  00000-0  10354-3 0  9997,2 51146  53.2190   5.7026 0001220  85.0274 275.0857 15.08834171118653,6917.898,95.438,540.607,538.919,0.0
51146.0,STARLINK-3354,PAYLOAD,2024-03-03 20:28:06,15.08834178,0.0001397,53.2195,2.4325,86.3447,273.7705,-3.2848e-05,-8.11e-06,0.0,0 STARLINK-3354,1 51146U 22005AU  24063.85285433 -.00000811  00000-0 -32848-4 0  9990,2 51146  53.2195   2.4325 0001397  86.3447 273.7705 15.08834178117647,6917.898,95.438,540.73,538.797,0.0
